[{"OBJECT_NAME":"STARLINK-36215","OBJECT_ID":"2025-298AB","EPOCH":"2026-03-09T22:31:42.809088","MEAN_MOTION":14.99137511,"ECCENTRICITY":0.00025723,"INCLINATION":70.0018,"RA_OF_ASC_NODE":13.862,"ARG_OF_PERICENTER":279.071,"MEAN_ANOMALY":81.0158,"EPHEMERIS_TYPE":0,"CLASSIFICATION_TYPE":"U","NORAD_CAT_ID":67100,"ELEMENT_SET_NO":999,"REV_AT_EPOCH":1325,"BSTAR":0.00094826761,"MEAN_MOTION_DOT":0.00011479,"MEAN_MOTION_DDOT":0},{"OBJECT_NAME":"CZ-6A DEB","OBJECT_ID":"2022-151KB","EPOCH":"2026-03-09T19:20:41.637408","MEAN_MOTION":14.94061736,"ECCENTRICITY":0.0071589,"INCLINATION":98.7004,"RA_OF_ASC_NODE":166.2159,"ARG_OF_PERICENTER":166.3306,"MEAN_ANOMALY":193.9872,"EPHEMERIS_TYPE":0,"CLASSIFICATION_TYPE":"U","NORAD_CAT_ID":54523,"ELEMENT_SET_NO":999,"REV_AT_EPOCH":17710,"BSTAR":0.0044467837,"MEAN_MOTION_DOT":0.00050189,"MEAN_MOTION_DDOT":0}]
